H1 CPF 01  gfz 2021 04 13 00  6031 tandemx   
H2 1003001  6202 36605    2021 04 13 00 59 42 2021 04 18 00 00 42   120 1 1  0 0 0
H9
10 0 59319  46062.000000  0   -1011611.673   -506145.707  -6801965.397
10 0 59319  46182.000000  0    -829506.744    393137.065  -6834022.269
10 0 59319  46302.000000  0    -617390.626   1282164.775  -6746923.891
10 0 59319  46422.000000  0    -379251.394   2145052.356  -6542166.176
10 0 59319  46542.000000  0    -119801.738   2966427.695  -6223269.741
10 0 59319  46662.000000  0     155610.589   3731701.653  -5795727.554
10 0 59319  46782.000000  0     441108.566   4427326.112  -5266919.286
10 0 59319  46902.000000  0     730405.099   5041035.408  -4645995.409
10 0 59319  47022.000000  0    1016934.787   5562069.413  -3943730.447
10 0 59319  47142.000000  0    1293995.892   5981371.583  -3172345.243
10 0 59319  47262.000000  0    1554899.219   6291757.709  -2345301.539
10 0 59319  47382.000000  0    1793120.972   6488051.852  -1477070.635
10 0 59319  47502.000000  0    2002456.121   6567184.656   -582879.300
10 0 59319  47622.000000  0    2177167.937   6528249.879    321562.021
10 0 59319  47742.000000  0    2312129.475   6372517.672   1220341.921
10 0 59319  47862.000000  0    2402953.888   6103404.493   2097635.712
10 0 59319  47982.000000  0    2446109.927   5726400.051   2937992.172
10 0 59319  48102.000000  0    2439020.214   5248953.488   3726613.304
10 0 59319  48222.000000  0    2380139.070   4680321.130   4449621.687
10 0 59319  48342.000000  0    2269007.507   4031378.273   5094310.167
10 0 59319  48462.000000  0    2106283.547   3314399.467   5649363.674
10 0 59319  48582.000000  0    1893750.648   2542819.569   6105053.235
10 0 59319  48702.000000  0    1634302.492   1730976.343   6453402.664
10 0 59319  48822.000000  0    1331903.709    893838.555   6688322.657
10 0 59319  48942.000000  0     991528.370     46727.540   6805709.916
10 0 59319  49062.000000  0     619077.863   -794961.855   6803514.593
10 0 59319  49182.000000  0     221278.315  -1616041.197   6681775.417
10 0 59319  49302.000000  0    -194441.115  -2401802.589   6442618.814
10 0 59319  49422.000000  0    -620086.836  -3138282.910   6090223.544
10 0 59319  49542.000000  0   -1047252.524  -3812512.797   5630749.813
10 0 59319  49662.000000  0   -1467282.078  -4412746.389   5072237.835
10 0 59319  49782.000000  0   -1871444.033  -4928671.725   4424475.874
10 0 59319  49902.000000  0   -2251113.182  -5351597.273   3698834.668
10 0 59319  50022.000000  0   -2597954.572  -5674607.796   2908069.293
10 0 59319  50142.000000  0   -2904104.934  -5892684.320   2066093.864
10 0 59319  50262.000000  0   -3162347.837  -6002787.788   1187733.875
10 0 59319  50382.000000  0   -3366278.483  -6003903.862    288459.522
10 0 59319  50502.000000  0   -3510453.732  -5897047.069   -615894.350
10 0 59319  50622.000000  0   -3590523.581  -5685224.023  -1509416.100
10 0 59319  50742.000000  0   -3603340.509  -5373355.804  -2376406.244
10 0 59319  50862.000000  0   -3547044.013  -4968161.971  -3201660.588
10 0 59319  50982.000000  0   -3421117.850  -4478009.599  -3970741.135
10 0 59319  51102.000000  0   -3226419.138  -3912732.677  -4670228.479
10 0 59319  51222.000000  0   -2965179.956  -3283427.313  -5287952.027
10 0 59319  51342.000000  0   -2640981.910  -2602227.184  -5813194.482
10 0 59319  51462.000000  0   -2258704.683  -1882065.161  -6236868.071
10 0 59319  51582.000000  0   -1824449.136  -1136425.679  -6551661.339
10 0 59319  51702.000000  0   -1345437.192   -379092.616  -6752153.373
10 0 59319  51822.000000  0    -829891.904    376101.739  -6834895.949
10 0 59319  51942.000000  0    -286898.527   1115522.809  -6798466.247
10 0 59319  52062.000000  0     273751.887   1825973.450  -6643488.346
10 0 59319  52182.000000  0     841733.304   2494923.216  -6372625.154
10 0 59319  52302.000000  0    1406371.300   3110726.179  -5990539.026
10 0 59319  52422.000000  0    1956839.257   3662822.516  -5503819.159
10 0 59319  52542.000000  0    2482362.517   4141920.417  -4920878.616
10 0 59319  52662.000000  0    2972427.460   4540156.844  -4251820.761
10 0 59319  52782.000000  0    3416991.585   4851233.976  -3508274.551
10 0 59319  52902.000000  0    3806690.592   5070527.095  -2703200.903
10 0 59319  53022.000000  0    4133038.367   5195161.061  -1850671.282
10 0 59319  53142.000000  0    4388613.048   5224052.788   -965623.207
10 0 59319  53262.000000  0    4567226.109   5157919.697    -63595.876
10 0 59319  53382.000000  0    4664068.865   4999250.022    839549.037
10 0 59319  53502.000000  0    4675830.961   4752237.333   1727913.302
10 0 59319  53622.000000  0    4600791.068   4422682.843   2585849.472
10 0 59319  53742.000000  0    4438875.747   4017863.993   3398246.796
10 0 59319  53862.000000  0    4191682.153   3546373.345   4150804.748
10 0 59319  53982.000000  0    3862467.295   3017933.070   4830288.128
10 0 59319  54102.000000  0    3456105.375   2443191.098   5424762.247
10 0 59319  54222.000000  0    2979009.163   1833500.992   5923801.258
10 0 59319  54342.000000  0    2439023.775   1200694.319   6318665.469
10 0 59319  54462.000000  0    1845293.392    556847.891   6602448.258
10 0 59319  54582.000000  0    1208103.102    -85946.629   6770190.338
10 0 59319  54702.000000  0     538698.731   -715808.748   6818962.880
10 0 59319  54822.000000  0    -150912.617  -1321289.304   6747915.578
10 0 59319  54942.000000  0    -848178.134  -1891578.243   6558289.970
10 0 59319  55062.000000  0   -1540227.391  -2416697.738   6253397.775
10 0 59319  55182.000000  0   -2214107.597  -2887676.419   5838565.801
10 0 59319  55302.000000  0   -2857025.055  -3296704.601   5321050.715
10 0 59319  55422.000000  0   -3456591.834  -3637268.411   4709919.439
10 0 59319  55542.000000  0   -4001069.274  -3904257.208   4015894.099
10 0 59319  55662.000000  0   -4479601.883  -4094043.298   3251166.928
10 0 59319  55782.000000  0   -4882438.329  -4204532.670   2429188.086
10 0 59319  55902.000000  0   -5201135.735  -4235185.877   1564428.033
10 0 59319  56022.000000  0   -5428740.305  -4187006.350    672117.589
10 0 59319  56142.000000  0   -5559939.856  -4062496.783   -232027.244
10 0 59319  56262.000000  0   -5591184.424  -3865584.962  -1132090.765
10 0 59319  56382.000000  0   -5520771.249  -3601520.236  -2012247.837
10 0 59319  56502.000000  0   -5348890.564  -3276742.669  -2857050.404
10 0 59319  56622.000000  0   -5077633.425  -2898730.665  -3651703.306
10 0 59319  56742.000000  0   -4710962.089  -2475830.375  -4382324.810
10 0 59319  56862.000000  0   -4254644.151  -2017071.695  -5036187.160
10 0 59319  56982.000000  0   -3716152.234  -1531975.518  -5601932.796
10 0 59319  57102.000000  0   -3104532.644  -1030356.174  -6069762.952
10 0 59319  57222.000000  0   -2430246.520   -522123.965  -6431596.342
10 0 59319  57342.000000  0   -1704986.392    -17092.009  -6681197.266
10 0 59319  57462.000000  0    -941472.106    475208.857  -6814271.034
10 0 59319  57582.000000  0    -153231.400    945704.663  -6828529.394
10 0 59319  57702.000000  0     645633.962   1385941.214  -6723725.142
10 0 59319  57822.000000  0    1440693.330   1788231.358  -6501657.938
10 0 59319  57942.000000  0    2217442.857   2145787.551  -6166147.599
10 0 59319  58062.000000  0    2961565.420   2452835.531  -5722975.352
10 0 59319  58182.000000  0    3659191.101   2704707.722  -5179793.075
10 0 59319  58302.000000  0    4297155.014   2897915.628  -4546003.631
10 0 59319  58422.000000  0    4863249.767   3030200.075  -3832609.363
10 0 59319  58542.000000  0    5346464.968   3100556.660  -3052029.604
10 0 59319  58662.000000  0    5737208.635   3109236.849  -2217891.801
10 0 59319  58782.000000  0    6027507.694   3057724.242  -1344796.509
10 0 59319  58902.000000  0    6211178.779   2948683.869   -448060.390
10 0 59319  59022.000000  0    6283966.428   2785887.416    456556.922
10 0 59319  59142.000000  0    6243643.136   2574113.564   1353137.028
10 0 59319  59262.000000  0    6090069.794   2319029.413   2225890.172
10 0 59319  59382.000000  0    5825214.718   2027053.919   3059442.861
10 0 59319  59502.000000  0    5453128.650   1705205.970   3839117.013
10 0 59319  59622.000000  0    4979877.537   1360942.306   4551194.575
10 0 59319  59742.000000  0    4413435.171   1001989.231   5183160.379
10 0 59319  59862.000000  0    3763541.225    636172.541   5723922.209
10 0 59319  59982.000000  0    3041523.406    271248.810   6164003.284
10 0 59319  60102.000000  0    2260091.838    -85256.185   6495701.238
10 0 59319  60222.000000  0    1433111.252   -426199.836   6713217.037
10 0 59319  60342.000000  0     575351.797   -744964.227   6812752.180
10 0 59319  60462.000000  0    -297777.128  -1035583.582   6792570.358
10 0 59319  60582.000000  0   -1170503.457  -1292855.371   6653025.019
10 0 59319  60702.000000  0   -2026976.385  -1512433.616   6396552.488
10 0 59319  60822.000000  0   -2851552.182  -1690901.693   6027631.409
10 0 59319  60942.000000  0   -3629079.799  -1825825.195   5552712.034
10 0 59319  61062.000000  0   -4345184.310  -1915785.110   4980110.300
10 0 59319  61182.000000  0   -4986538.594  -1960389.138   4319867.129
10 0 59319  61302.000000  0   -5541118.716  -1960260.165   3583575.713
10 0 59319  61422.000000  0   -5998436.949  -1917002.070   2784180.243
10 0 59319  61542.000000  0   -6349749.075  -1833144.959   1935749.605
10 0 59319  61662.000000  0   -6588232.135  -1712070.645   1053226.549
10 0 59319  61782.000000  0   -6709123.098  -1557918.610    152156.861
10 0 59319  61902.000000  0   -6709816.934  -1375475.235   -751592.638
10 0 59319  62022.000000  0   -6589920.879  -1170049.451  -1642122.958
10 0 59319  62142.000000  0   -6351263.649   -947338.338  -2503790.817
10 0 59319  62262.000000  0   -5997860.656   -713286.793  -3321489.559
10 0 59319  62382.000000  0   -5535835.855   -473943.714  -4080917.962
10 0 59319  62502.000000  0   -4973303.045   -235317.859  -4768830.252
99
